[Satellite]
VERSION=1.1
NAME=FLOCK 2P-8
NICKNAME=FLOCK 2P-8
TLE1=1 41613U 16040Q   17186.16505529  .00001616  00000-0  73242-4 0  9998
TLE2=2 41613  97.4607 248.8757 0011844  28.7643 331.4244 15.22244310 57400
